NIMIQ 4                 
1 33373U 08044A   26169.17729583  .00000000  00000+0  00000+0 0  9999
2 33373   0.0359  50.1430 0002071  35.1269 163.0130  1.00267491 64999
GALAXY 19 (G-19)        
1 33376U 08045A   26169.16279843 -.00000145  00000+0  00000+0 0  9992
2 33376   0.0337 263.6227 0002495 187.6880 136.7065  1.00271198 64910
ASTRA 1M                
1 33436U 08057A   26169.18576520  .00000115  00000+0  00000+0 0  9992
2 33436   0.2999  82.4624 0004758  25.1366 245.0655  1.00272167 45746
EUTELSAT HOTBIRD 13C    
1 33459U 08065A   26169.17198513 -.00000290  00000+0  00000+0 0  9992
2 33459   2.9536  79.1806 0003352   7.4418 191.4100  1.00270549 47352
EXPRESS-AM44            
1 33595U 09007A   26169.17978516 -.00000097  00000+0  00000+0 0  9994
2 33595   3.4664  78.3768 0003814   1.5137 240.2430  1.00270992 52295
NSS-9                   
1 33749U 09008A   26169.28957406  .00000065  00000+0  00000+0 0  9997
2 33749   1.2655  82.6436 0001995 345.4989 125.6945  1.00270537 63536
TELSTAR 11N             
1 34111U 09009A   26169.17449847 -.00000257  00000+0  00000+0 0  9999
2 34111   0.0230  64.5524 0002218  25.1368 201.9810  1.00270229 46252
WGS F2 (USA 204)        
1 34713U 09017A   26169.12203777  .00000062  00000+0  00000+0 0  9994
2 34713   0.0184   2.6854 0000109 274.1563  90.9621  1.00272373 45625
SES-7 (PROTOSTAR 2)     
1 34941U 09027A   26168.98951304 -.00000351  00000+0  00000+0 0  9999
2 34941   0.0403  66.7780 0000707 135.5145 168.4407  1.00270628 62635
MEASAT-3A               
1 35362U 09032A   26169.28493154 -.00000116  00000+0  00000+0 0  9990
2 35362   0.0221 357.5734 0002893  82.3080  89.2293  1.00271746  8046
GOES 14                 
1 35491U 09033A   26169.28120486 -.00000302  00000+0  00000+0 0  9996
2 35491   1.6937  83.0286 0001800  11.7638  54.1600  1.00110536  6607
FM-5                    
1 35493U 09034A   26169.09362002 -.00000206  00000+0  00000+0 0  9993
2 35493   0.0166 299.1113 0000853  10.2562 264.5070  1.00269241 46657
TERRESTAR-1             
1 35496U 09035A   26169.23123515 -.00000065  00000+0  00000+0 0  9990
2 35496   5.1787  48.7948 0002723  31.0655 158.8415  1.00272039 62140
ASIASAT 5               
1 35696U 09042A   26169.13053113  .00000000  00000+0  00000+0 0  9993
2 35696   0.0275  45.0655 0001592  41.3883 327.4729  1.00266765 61716
JCSAT-12 (JCSAT-RA)     
1 35755U 09044A   26169.27938485 -.00000334  00000+0  00000+0 0  9991
2 35755   0.0097   8.7459 0000292 297.9434 192.4507  1.00270684 61628
OPTUS D3                
1 35756U 09044B   26168.64258748 -.00000151  00000+0  00000+0 0  9996
2 35756   0.8720 268.9738 0002830 180.3563 204.0290  1.00269858 61572
NIMIQ 5                 
1 35873U 09050A   26169.20272236 -.00000263  00000+0  00000+0 0  9998
2 35873   0.0037  25.3107 0002747  59.6588 181.7511  1.00270053 61354
AMAZONAS 2              
1 35942U 09054A   26168.40600353 -.00000264  00000+0  00000+0 0  9996
2 35942   1.8168  83.0454 0003193 359.2030 257.5511  1.00268546 61185
COMSATBW-1              
1 35943U 09054B   26169.12316443  .00000017  00000+0  00000+0 0  9996
2 35943   0.0550 162.9695 0002667 293.5790 277.2171  1.00276616 61317
NSS-12                  
1 36032U 09058A   26168.90806169  .00000067  00000+0  00000+0 0  9999
2 36032   0.0473  54.6440 0004754   2.2708 233.1342  1.00268210 60927
THOR 6                  
1 36033U 09058B   26169.18177851 -.00000016  00000+0  00000+0 0  9995
2 36033   0.0174  86.7099 0001587 355.1093 249.2020  1.00271218 61014
INTELSAT 14 (IS-14)     
1 36097U 09064A   26169.17302513 -.00000279  00000+0  00000+0 0  9997
2 36097   0.0134 307.6173 0002302 136.3334 199.7596  1.00272898 60618
EUTELSAT 36B            
1 36101U 09065A   26169.19200523  .00000106  00000+0  00000+0 0  9992
2 36101   0.4948  81.1121 0005837   3.9419 301.0221  1.00274364 60711
INTELSAT 15 (IS-15)     
1 36106U 09067A   26168.91369505 -.00000190  00000+0  00000+0 0  9998
2 36106   0.0144 330.2034 0002084 120.0474 229.9779  1.00270234 41238
WGS F3 (USA 211)        
1 36108U 09068A   26168.72845024  .00000060  00000+0  00000+0 0  9990
2 36108   0.3253  85.7423 0000711 254.1206  58.3557  1.00262204 46595
DIRECTV 12              
1 36131U 09075A   26168.66260758 -.00000108  00000+0  00000+0 0  9996
2 36131   0.0147 116.8023 0000258 315.2518 329.6722  1.00267604 46556
BEIDOU-2 G1             
1 36287U 10001A   26168.92461510 -.00000288  00000+0  00000+0 0  9996
2 36287   4.2953  60.4037 0002276 295.7125  23.3830  1.00269983 60170
SDO                     
1 36395U 10005A   26168.41002763 -.00000096  00000+0  00000+0 0  9992
2 36395  34.6527  86.3378 0001734  44.0102 180.8312  1.00269958 60061
INTELSAT 16 (IS-16)     
1 36397U 10006A   26169.28559616 -.00000251  00000+0  00000+0 0  9998
2 36397   0.0114 323.6206 0001914 137.5235 191.9878  1.00272532 59660
EWS-G2 (GOES 15)        
1 36411U 10008A   26169.20649959  .00000013  00000+0  00000+0 0  9994
2 36411   1.2813  82.8263 0004809  42.3031 279.3564  1.00266109 59640
ECHOSTAR 14             
1 36499U 10010A   26169.30694370 -.00000006  00000+0  00000+0 0  9994
2 36499   0.0482  84.6224 0002347  15.9538 157.5830  1.00269824 46562
SES-1                   
1 36516U 10016A   26168.94808817 -.00000120  00000+0  00000+0 0  9999
2 36516   0.0113 345.9938 0002541  99.4519  61.0594  1.00271142 59049
