OBJECT_NAME,OBJECT_ID,EPOCH,MEAN_MOTION,ECCENTRICITY,INCLINATION,RA_OF_ASC_NODE,ARG_OF_PERICENTER,MEAN_ANOMALY,EPHEMERIS_TYPE,CLASSIFICATION_TYPE,NORAD_CAT_ID,ELEMENT_SET_NO,REV_AT_EPOCH,BSTAR,MEAN_MOTION_DOT,MEAN_MOTION_DDOT
NIMIQ 4,2008-044A,2026-06-18T04:15:18.359712,1.00267491,.00020714,0.0359,50.1430,35.1269,163.0130,0,U,33373,999,6499,0,0,0
GALAXY 19 (G-19),2008-045A,2026-06-18T03:54:25.784352,1.00271198,.00024955,0.0337,263.6227,187.6880,136.7065,0,U,33376,999,6491,0,-.145E-5,0
ASTRA 1M,2008-057A,2026-06-18T04:27:30.113280,1.00272167,.00047581,0.2999,82.4624,25.1366,245.0655,0,U,33436,999,4574,0,.115E-5,0
EUTELSAT HOTBIRD 13C,2008-065A,2026-06-18T04:07:39.515232,1.00270549,.00033521,2.9536,79.1806,7.4418,191.4100,0,U,33459,999,4735,0,-.29E-5,0
EXPRESS-AM44,2009-007A,2026-06-18T04:18:53.437824,1.00270992,.0003814,3.4664,78.3768,1.5137,240.2430,0,U,33595,999,5229,0,-.97E-6,0
NSS-9,2009-008A,2026-06-18T06:56:59.198784,1.00270537,.00019959,1.2655,82.6436,345.4989,125.6945,0,U,33749,999,6353,0,.65E-6,0
TELSTAR 11N,2009-009A,2026-06-18T04:11:16.667808,1.00270229,.00022185,0.0230,64.5524,25.1368,201.9810,0,U,34111,999,4625,0,-.257E-5,0
WGS F2 (USA 204),2009-017A,2026-06-18T02:55:44.063328,1.00272373,.00001098,0.0184,2.6854,274.1563,90.9621,0,U,34713,999,4562,0,.62E-6,0
SES-7 (PROTOSTAR 2),2009-027A,2026-06-17T23:44:53.926656,1.00270628,.00007074,0.0403,66.7780,135.5145,168.4407,0,U,34941,999,6263,0,-.351E-5,0
MEASAT-3A,2009-032A,2026-06-18T06:50:18.085056,1.00271746,.0002893,0.0221,357.5734,82.3080,89.2293,0,U,35362,999,804,0,-.116E-5,0
GOES 14,2009-033A,2026-06-18T06:44:56.099904,1.00110536,.00018009,1.6937,83.0286,11.7638,54.1600,0,U,35491,999,660,0,-.302E-5,0
FM-5,2009-034A,2026-06-18T02:14:48.769728,1.00269241,.00008531,0.0166,299.1113,10.2562,264.5070,0,U,35493,999,4665,0,-.206E-5,0
TERRESTAR-1,2009-035A,2026-06-18T05:32:58.716960,1.00272039,.00027238,5.1787,48.7948,31.0655,158.8415,0,U,35496,999,6214,0,-.65E-6,0
ASIASAT 5,2009-042A,2026-06-18T03:07:57.889632,1.00266765,.0001592,0.0275,45.0655,41.3883,327.4729,0,U,35696,999,6171,0,0,0
JCSAT-12 (JCSAT-RA),2009-044A,2026-06-18T06:42:18.851040,1.00270684,.00002921,0.0097,8.7459,297.9434,192.4507,0,U,35755,999,6162,0,-.334E-5,0
OPTUS D3,2009-044B,2026-06-17T15:25:19.558272,1.00269858,.00028301,0.8720,268.9738,180.3563,204.0290,0,U,35756,999,6157,0,-.151E-5,0
NIMIQ 5,2009-050A,2026-06-18T04:51:55.211904,1.00270053,.00027475,0.0037,25.3107,59.6588,181.7511,0,U,35873,999,6135,0,-.263E-5,0
AMAZONAS 2,2009-054A,2026-06-17T09:44:38.704992,1.00268546,.0003193,1.8168,83.0454,359.2030,257.5511,0,U,35942,999,6118,0,-.264E-5,0
COMSATBW-1,2009-054B,2026-06-18T02:57:21.406752,1.00276616,.00026678,0.0550,162.9695,293.5790,277.2171,0,U,35943,999,6131,0,.17E-6,0
NSS-12,2009-058A,2026-06-17T21:47:36.530016,1.00268210,.00047548,0.0473,54.6440,2.2708,233.1342,0,U,36032,999,6092,0,.67E-6,0
THOR 6,2009-058B,2026-06-18T04:21:45.663264,1.00271218,.00015871,0.0174,86.7099,355.1093,249.2020,0,U,36033,999,6101,0,-.16E-6,0
INTELSAT 14 (IS-14),2009-064A,2026-06-18T04:09:09.371232,1.00272898,.00023022,0.0134,307.6173,136.3334,199.7596,0,U,36097,999,6061,0,-.279E-5,0
EUTELSAT 36B,2009-065A,2026-06-18T04:36:29.251872,1.00274364,.00058378,0.4948,81.1121,3.9419,301.0221,0,U,36101,999,6071,0,.106E-5,0
INTELSAT 15 (IS-15),2009-067A,2026-06-17T21:55:43.252320,1.00270234,.00020846,0.0144,330.2034,120.0474,229.9779,0,U,36106,999,4123,0,-.19E-5,0
WGS F3 (USA 211),2009-068A,2026-06-17T17:28:58.100736,1.00262204,.00007117,0.3253,85.7423,254.1206,58.3557,0,U,36108,999,4659,0,.6E-6,0
DIRECTV 12,2009-075A,2026-06-17T15:54:09.294912,1.00267604,.00002583,0.0147,116.8023,315.2518,329.6722,0,U,36131,999,4655,0,-.108E-5,0
BEIDOU-2 G1,2010-001A,2026-06-17T22:11:26.744640,1.00269983,.00022765,4.2953,60.4037,295.7125,23.3830,0,U,36287,999,6017,0,-.288E-5,0
SDO,2010-005A,2026-06-17T09:50:26.387232,1.00269958,.00017341,34.6527,86.3378,44.0102,180.8312,0,U,36395,999,6006,0,-.96E-6,0
INTELSAT 16 (IS-16),2010-006A,2026-06-18T06:51:15.508224,1.00272532,.00019147,0.0114,323.6206,137.5235,191.9878,0,U,36397,999,5966,0,-.251E-5,0
EWS-G2 (GOES 15),2010-008A,2026-06-18T04:57:21.564576,1.00266109,.0004809,1.2813,82.8263,42.3031,279.3564,0,U,36411,999,5964,0,.13E-6,0
ECHOSTAR 14,2010-010A,2026-06-18T07:21:59.935680,1.00269824,.00023479,0.0482,84.6224,15.9538,157.5830,0,U,36499,999,4656,0,-.6E-7,0
SES-1,2010-016A,2026-06-17T22:45:14.817888,1.00271142,.00025413,0.0113,345.9938,99.4519,61.0594,0,U,36516,999,5904,0,-.12E-5,0
